{
  "type": "FeatureCollection",
  "features": [
    {
      "type": "Feature",
      "properties": {
        "norad_id": 37320,
        "name": "COSMOS 2251 DEB",
        "group": "cosmos-2251-debris",
        "lat": 52.75623350265927,
        "lon": -120.86484490262053,
        "alt_km": 640.1062818973551,
        "timestamp": "2025-12-13T07:35:41.902011+00:00",
        "meta_object_name": "COSMOS 2251 DEB",
        "meta_object_id": "1993-036BKL",
        "meta_epoch": "2025-12-11T08:15:28.693440",
        "meta_mean_motion": 14.78755707,
        "meta_eccentricity": 0.00469304,
        "meta_inclination": 74.0456,
        "meta_ra_of_asc_node": 220.9045,
        "meta_arg_of_pericenter": 308.1681,
        "meta_mean_anomaly": 51.527,
        "meta_ephemeris_type": 0,
        "meta_classification_type": "U",
        "meta_norad_cat_id": 37320,
        "meta_element_set_no": 999,
        "meta_rev_at_epoch": 66126,
        "meta_bstar": 0.0016772012,
        "meta_mean_motion_dot": 0.00012539,
        "meta_mean_motion_ddot": 0,
        "tle_line1": "1 37320U 93036BKL 25345.34408210  .00012539  00000+0  16772-2 0  9991",
        "tle_line2": "2 37320  74.0456 220.9045 0046930 308.1681  51.5270 14.78755707661266"
      },
      "geometry": {
        "type": "Point",
        "coordinates": [
          -120.86484490262053,
          52.75623350265927
        ]
      }
    },
    {
      "type": "Feature",
      "properties": {
        "norad_id": 37326,
        "name": "COSMOS 2251 DEB",
        "group": "cosmos-2251-debris",
        "lat": -44.17150826061422,
        "lon": 169.74665394951379,
        "alt_km": 715.8414610130949,
        "timestamp": "2025-12-13T07:35:41.902020+00:00",
        "meta_object_name": "COSMOS 2251 DEB",
        "meta_object_id": "1993-036BKS",
        "meta_epoch": "2025-12-12T07:34:09.729696",
        "meta_mean_motion": 14.61572404,
        "meta_eccentricity": 0.00547779,
        "meta_inclination": 74.0262,
        "meta_ra_of_asc_node": 335.5049,
        "meta_arg_of_pericenter": 104.6745,
        "meta_mean_anomaly": 256.0503,
        "meta_ephemeris_type": 0,
        "meta_classification_type": "U",
        "meta_norad_cat_id": 37326,
        "meta_element_set_no": 999,
        "meta_rev_at_epoch": 85477,
        "meta_bstar": 0.00081564532,
        "meta_mean_motion_dot": 4.11e-05,
        "meta_mean_motion_ddot": 0,
        "tle_line1": "1 37326U 93036BKS 25346.31539039  .00004110  00000+0  81565-3 0  9998",
        "tle_line2": "2 37326  74.0262 335.5049 0054777 104.6745 256.0503 14.61572404854776"
      },
      "geometry": {
        "type": "Point",
        "coordinates": [
          169.74665394951379,
          -44.17150826061422
        ]
      }
    },
    {
      "type": "Feature",
      "properties": {
        "norad_id": 37330,
        "name": "COSMOS 2251 DEB",
        "group": "cosmos-2251-debris",
        "lat": -37.22755908413845,
        "lon": 126.56382423118242,
        "alt_km": 691.0550141538815,
        "timestamp": "2025-12-13T07:35:41.902028+00:00",
        "meta_object_name": "COSMOS 2251 DEB",
        "meta_object_id": "1993-036BKW",
        "meta_epoch": "2025-12-12T14:08:58.585344",
        "meta_mean_motion": 14.59539529,
        "meta_eccentricity": 0.00570073,
        "meta_inclination": 74.0183,
        "meta_ra_of_asc_node": 295.3739,
        "meta_arg_of_pericenter": 143.9591,
        "meta_mean_anomaly": 216.544,
        "meta_ephemeris_type": 0,
        "meta_classification_type": "U",
        "meta_norad_cat_id": 37330,
        "meta_element_set_no": 999,
        "meta_rev_at_epoch": 86366,
        "meta_bstar": 0.0005148458,
        "meta_mean_motion_dot": 2.472e-05,
        "meta_mean_motion_ddot": 0,
        "tle_line1": "1 37330U 93036BKW 25346.58956696  .00002472  00000+0  51485-3 0  9991",
        "tle_line2": "2 37330  74.0183 295.3739 0057007 143.9591 216.5440 14.59539529863663"
      },
      "geometry": {
        "type": "Point",
        "coordinates": [
          126.56382423118242,
          -37.22755908413845
        ]
      }
    },
    {
      "type": "Feature",
      "properties": {
        "norad_id": 37331,
        "name": "COSMOS 2251 DEB",
        "group": "cosmos-2251-debris",
        "lat": -64.93201479475285,
        "lon": 29.19918418164513,
        "alt_km": 816.4288846269119,
        "timestamp": "2025-12-13T07:35:41.902037+00:00",
        "meta_object_name": "COSMOS 2251 DEB",
        "meta_object_id": "1993-036BKX",
        "meta_epoch": "2025-12-11T12:25:22.057824",
        "meta_mean_motion": 14.35017786,
        "meta_eccentricity": 0.00551462,
        "meta_inclination": 74.0753,
        "meta_ra_of_asc_node": 70.1043,
        "meta_arg_of_pericenter": 84.7821,
        "meta_mean_anomaly": 275.9621,
        "meta_ephemeris_type": 0,
        "meta_classification_type": "U",
        "meta_norad_cat_id": 37331,
        "meta_element_set_no": 999,
        "meta_rev_at_epoch": 84742,
        "meta_bstar": 0.00087412391,
        "meta_mean_motion_dot": 2.509e-05,
        "meta_mean_motion_ddot": 0,
        "tle_line1": "1 37331U 93036BKX 25345.51761641  .00002509  00000+0  87412-3 0  9998",
        "tle_line2": "2 37331  74.0753  70.1043 0055146  84.7821 275.9621 14.35017786847420"
      },
      "geometry": {
        "type": "Point",
        "coordinates": [
          29.19918418164513,
          -64.93201479475285
        ]
      }
    },
    {
      "type": "Feature",
      "properties": {
        "norad_id": 37336,
        "name": "COSMOS 2251 DEB",
        "group": "cosmos-2251-debris",
        "lat": -73.43547745957403,
        "lon": -135.6731797978014,
        "alt_km": 805.7947244068009,
        "timestamp": "2025-12-13T07:35:41.902046+00:00",
        "meta_object_name": "COSMOS 2251 DEB",
        "meta_object_id": "1993-036BLC",
        "meta_epoch": "2025-12-12T16:57:13.021344",
        "meta_mean_motion": 14.32758619,
        "meta_eccentricity": 0.002885,
        "meta_inclination": 74.0411,
        "meta_ra_of_asc_node": 331.2736,
        "meta_arg_of_pericenter": 49.0239,
        "meta_mean_anomaly": 311.3401,
        "meta_ephemeris_type": 0,
        "meta_classification_type": "U",
        "meta_norad_cat_id": 37336,
        "meta_element_set_no": 999,
        "meta_rev_at_epoch": 65119,
        "meta_bstar": 0.0001234592,
        "meta_mean_motion_dot": 3.12e-06,
        "meta_mean_motion_ddot": 0,
        "tle_line1": "1 37336U 93036BLC 25346.70640071  .00000312  00000+0  12346-3 0  9992",
        "tle_line2": "2 37336  74.0411 331.2736 0028850  49.0239 311.3401 14.32758619651197"
      },
      "geometry": {
        "type": "Point",
        "coordinates": [
          -135.6731797978014,
          -73.43547745957403
        ]
      }
    },
    {
      "type": "Feature",
      "properties": {
        "norad_id": 37340,
        "name": "COSMOS 2251 DEB",
        "group": "cosmos-2251-debris",
        "lat": 43.015046619764,
        "lon": 80.59327452053166,
        "alt_km": 771.7782518314843,
        "timestamp": "2025-12-13T07:35:41.902055+00:00",
        "meta_object_name": "COSMOS 2251 DEB",
        "meta_object_id": "1993-036BLG",
        "meta_epoch": "2025-12-11T13:11:54.734784",
        "meta_mean_motion": 14.36921007,
        "meta_eccentricity": 0.00177096,
        "meta_inclination": 74.0254,
        "meta_ra_of_asc_node": 279.3432,
        "meta_arg_of_pericenter": 14.6108,
        "meta_mean_anomaly": 345.5553,
        "meta_ephemeris_type": 0,
        "meta_classification_type": "U",
        "meta_norad_cat_id": 37340,
        "meta_element_set_no": 999,
        "meta_rev_at_epoch": 84050,
        "meta_bstar": 0.00032873326,
        "meta_mean_motion_dot": 9.48e-06,
        "meta_mean_motion_ddot": 0,
        "tle_line1": "1 37340U 93036BLG 25345.54993906  .00000948  00000+0  32873-3 0  9998",
        "tle_line2": "2 37340  74.0254 279.3432 0017709  14.6108 345.5553 14.36921007840505"
      },
      "geometry": {
        "type": "Point",
        "coordinates": [
          80.59327452053166,
          43.015046619764
        ]
      }
    },
    {
      "type": "Feature",
      "properties": {
        "norad_id": 37483,
        "name": "COSMOS 2251 DEB",
        "group": "cosmos-2251-debris",
        "lat": -71.13577818266376,
        "lon": 19.533360495744517,
        "alt_km": 751.5998391454104,
        "timestamp": "2025-12-13T07:35:41.902064+00:00",
        "meta_object_name": "COSMOS 2251 DEB",
        "meta_object_id": "1993-036BLL",
        "meta_epoch": "2025-12-12T20:24:34.200576",
        "meta_mean_motion": 14.43556839,
        "meta_eccentricity": 0.00930932,
        "meta_inclination": 73.973,
        "meta_ra_of_asc_node": 143.1287,
        "meta_arg_of_pericenter": 349.6034,
        "meta_mean_anomaly": 10.3194,
        "meta_ephemeris_type": 0,
        "meta_classification_type": "U",
        "meta_norad_cat_id": 37483,
        "meta_element_set_no": 999,
        "meta_rev_at_epoch": 65281,
        "meta_bstar": 0.00032856989,
        "meta_mean_motion_dot": 1.144e-05,
        "meta_mean_motion_ddot": 0,
        "tle_line1": "1 37483U 93036BLL 25346.85039584  .00001144  00000+0  32857-3 0  9995",
        "tle_line2": "2 37483  73.9730 143.1287 0093093 349.6034  10.3194 14.43556839652813"
      },
      "geometry": {
        "type": "Point",
        "coordinates": [
          19.533360495744517,
          -71.13577818266376
        ]
      }
    }
  ]
}